[{"OBJECT_NAME":"OBJECT A","OBJECT_ID":"2023-104A","EPOCH":"2026-03-06T18:47:13.750656","MEAN_MOTION":15.33350758,"ECCENTRICITY":0.00093331,"INCLINATION":97.2792,"RA_OF_ASC_NODE":135.5625,"ARG_OF_PERICENTER":122.1915,"MEAN_ANOMALY":238.0234,"EPHEMERIS_TYPE":0,"CLASSIFICATION_TYPE":"U","NORAD_CAT_ID":57424,"ELEMENT_SET_NO":999,"REV_AT_EPOCH":14634,"BSTAR":0.00048200218,"MEAN_MOTION_DOT":0.00015492,"MEAN_MOTION_DDOT":0},{"OBJECT_NAME":"STARLINK-34878","OBJECT_ID":"2025-189M","EPOCH":"2026-03-09T15:42:54.021888","MEAN_MOTION":15.30192129,"ECCENTRICITY":0.00010722,"INCLINATION":53.1597,"RA_OF_ASC_NODE":206.7521,"ARG_OF_PERICENTER":50.6921,"MEAN_ANOMALY":309.4175,"EPHEMERIS_TYPE":0,"CLASSIFICATION_TYPE":"U","NORAD_CAT_ID":65334,"ELEMENT_SET_NO":999,"REV_AT_EPOCH":3110,"BSTAR":0.00066262464,"MEAN_MOTION_DOT":0.00019312,"MEAN_MOTION_DDOT":0}]
